NORAD_CAT_ID,OBJECT_NAME,OBJECT_TYPE,EPOCH,MEAN_MOTION,ECCENTRICITY,INCLINATION,RA_OF_ASC_NODE,ARG_OF_PERICENTER,MEAN_ANOMALY,BSTAR,MEAN_MOTION_DOT,MEAN_MOTION_DDOT,TLE_LINE0,TLE_LINE1,TLE_LINE2,SEMIMAJOR_AXIS,PERIOD,APOGEE,PERIGEE,DECAYED
53176.0,STARLINK-4294,PAYLOAD,2023-10-04 01:50:14,15.08849242,0.0001408,53.2163,173.6835,100.7687,259.3463,0.00072455,0.00011265,0.0,0 STARLINK-4294,1 53176U 22083AW  23277.07655687  .00011265  00000-0  72455-3 0  9993,2 53176  53.2163 173.6835 0001408 100.7687 259.3463 15.08849242 68200,6917.852,95.437,540.691,538.743,0.0
53176.0,STARLINK-4294,PAYLOAD,2023-10-04 17:44:05,15.08843083,0.0001923,53.2186,170.7153,96.0821,264.0391,0.00029444,4.401e-05,0.0,0 STARLINK-4294,1 53176U 22083AW  23277.73895739  .00004401  00000-0  29444-3 0  9994,2 53176  53.2186 170.7153 0001923  96.0821 264.0391 15.08843083 68306,6917.871,95.437,541.066,538.406,0.0
53176.0,STARLINK-4294,PAYLOAD,2023-10-04 20:54:52,15.08847963,0.0001463,53.2166,170.1169,100.3288,259.7869,0.00034132,5.149e-05,0.0,0 STARLINK-4294,1 53176U 22083AW  23277.87143668  .00005149  00000-0  34132-3 0  9996,2 53176  53.2166 170.1169 0001463 100.3288 259.7869 15.08847963 67682,6917.856,95.437,540.733,538.709,0.0
53176.0,STARLINK-4294,PAYLOAD,2023-10-05 09:37:57,15.08852215,0.0001564,53.2164,167.738,99.7796,260.3373,0.0003979,6.052e-05,0.0,0 STARLINK-4294,1 53176U 22083AW  23278.40135532  .00006052  00000-0  39790-3 0  9996,2 53176  53.2164 167.7380 0001564  99.7796 260.3373 15.08852215 67767,6917.843,95.437,540.79,538.626,0.0
53176.0,STARLINK-4294,PAYLOAD,2023-10-05 22:21:02,15.08834841,0.000182,53.2172,165.3612,89.3527,270.7673,-6.8885e-05,-1.384e-05,0.0,0 STARLINK-4294,1 53176U 22083AW  23278.93128130 -.00001384  00000-0 -68885-4 0  9993,2 53176  53.2172 165.3612 0001820  89.3527 270.7673 15.08834841 67842,6917.896,95.438,541.02,538.502,0.0
53176.0,STARLINK-4294,PAYLOAD,2023-10-06 01:31:48,15.08839375,0.000182,53.2169,164.7638,85.6424,274.4776,9.0406e-05,1.151e-05,0.0,0 STARLINK-4294,1 53176U 22083AW  23279.06375952  .00001151  00000-0  90406-4 0  9998,2 53176  53.2169 164.7638 0001820  85.6424 274.4776 15.08839375 68500,6917.882,95.438,541.006,538.488,0.0
53176.0,STARLINK-4294,PAYLOAD,2023-10-06 09:28:44,15.08831247,0.0001686,53.2157,163.2732,86.4559,273.6626,9.5431e-05,1.231e-05,0.0,0 STARLINK-4294,1 53176U 22083AW  23279.39496329  .00001231  00000-0  95431-4 0  9998,2 53176  53.2157 163.2732 0001686  86.4559 273.6626 15.08831247 68554,6917.907,95.438,540.939,538.606,0.0
53176.0,STARLINK-4294,PAYLOAD,2023-10-06 22:11:50,15.0883846,0.0001755,53.2166,160.8941,88.9919,271.1274,0.0002071,3.009e-05,0.0,0 STARLINK-4294,1 53176U 22083AW  23279.92488488  .00003009  00000-0  20710-3 0  9996,2 53176  53.2166 160.8941 0001755  88.9919 271.1274 15.08838460 67996,6917.885,95.438,540.964,538.536,0.0
53176.0,STARLINK-4294,PAYLOAD,2023-10-07 09:19:32,15.0883854,0.0001739,53.2155,158.8174,85.564,274.5551,0.00029834,4.463e-05,0.0,0 STARLINK-4294,1 53176U 22083AW  23280.38856742  .00004463  00000-0  29834-3 0  9991,2 53176  53.2155 158.8174 0001739  85.5640 274.5551 15.08838540 68068,6917.885,95.438,540.953,538.547,0.0
53176.0,STARLINK-4294,PAYLOAD,2023-10-07 22:02:37,15.08843361,0.0001684,53.2162,156.4366,87.826,272.2924,0.00040951,6.236e-05,0.0,0 STARLINK-4294,1 53176U 22083AW  23280.91848793  .00006236  00000-0  40951-3 0  9990,2 53176  53.2162 156.4366 0001684  87.8260 272.2924 15.08843361 68140,6917.87,95.437,540.9,538.57,0.0
53176.0,STARLINK-4294,PAYLOAD,2023-10-08 01:13:23,15.08848925,0.0001664,53.2161,155.8416,88.7464,271.3719,0.00054599,8.414e-05,0.0,0 STARLINK-4294,1 53176U 22083AW  23281.05096641  .00008414  00000-0  54599-3 0  9996,2 53176  53.2161 155.8416 0001664  88.7464 271.3719 15.08848925 68808,6917.853,95.437,540.869,538.567,0.0
53176.0,STARLINK-4294,PAYLOAD,2023-10-08 09:10:19,15.08850875,0.0001651,53.2157,154.3563,85.3447,274.7734,0.00045547,6.97e-05,0.0,0 STARLINK-4294,1 53176U 22083AW  23281.38216532  .00006970  00000-0  45547-3 0  9993,2 53176  53.2157 154.3563 0001651  85.3447 274.7734 15.08850875 68216,6917.847,95.437,540.854,538.57,0.0
53176.0,STARLINK-4294,PAYLOAD,2023-10-08 21:53:23,15.08855459,0.0001438,53.2151,151.9755,99.1609,260.9546,0.00048679,7.471e-05,0.0,0 STARLINK-4294,1 53176U 22083AW  23281.91208021  .00007471  00000-0  48679-3 0  9992,2 53176  53.2151 151.9755 0001438  99.1609 260.9546 15.08855459 68291,6917.833,95.437,540.693,538.703,0.0
53176.0,STARLINK-4294,PAYLOAD,2023-10-09 01:04:09,15.0885733,0.0001431,53.2156,151.3803,101.9384,258.1769,0.00051271,7.885e-05,0.0,0 STARLINK-4294,1 53176U 22083AW  23282.04455859  .00007885  00000-0  51271-3 0  9991,2 53176  53.2156 151.3803 0001431 101.9384 258.1769 15.08857330 68958,6917.827,95.436,540.682,538.702,0.0
53176.0,STARLINK-4294,PAYLOAD,2023-10-09 09:01:06,15.0883812,0.0002009,53.2166,149.8953,86.2865,273.8357,2.5392e-05,1.16e-06,0.0,0 STARLINK-4294,1 53176U 22083AW  23282.37576743  .00000116  00000-0  25392-4 0  9999,2 53176  53.2166 149.8953 0002009  86.2865 273.8357 15.08838120 69008,6917.886,95.438,541.141,538.361,0.0
53176.0,STARLINK-4294,PAYLOAD,2023-10-09 21:44:11,15.08837979,0.0001433,53.2172,147.5168,89.8474,270.2683,9.7035e-05,1.257e-05,0.0,0 STARLINK-4294,1 53176U 22083AW  23282.90568623  .00001257  00000-0  97035-4 0  9996,2 53176  53.2172 147.5168 0001433  89.8474 270.2683 15.08837979 68444,6917.887,95.438,540.743,538.76,0.0
53176.0,STARLINK-4294,PAYLOAD,2023-10-10 00:54:57,15.08839803,0.0001468,53.217,146.9206,96.8203,263.2956,0.00020032,2.902e-05,0.0,0 STARLINK-4294,1 53176U 22083AW  23283.03816596  .00002902  00000-0  20032-3 0  9996,2 53176  53.2170 146.9206 0001468  96.8203 263.2956 15.08839803 68469,6917.881,95.438,540.762,538.73,0.0
53176.0,STARLINK-4294,PAYLOAD,2023-10-10 18:24:12,15.08843185,0.0001452,53.2172,143.6489,101.8815,258.234,0.00041203,6.276e-05,0.0,0 STARLINK-4294,1 53176U 22083AW  23283.76680715  .00006276  00000-0  41203-3 0  9999,2 53176  53.2172 143.6489 0001452 101.8815 258.2340 15.08843185 69210,6917.871,95.437,540.74,538.731,0.0
53176.0,STARLINK-4294,PAYLOAD,2023-10-10 21:34:58,15.08845439,0.0001455,53.2173,143.0542,99.9767,260.139,0.00045883,7.023e-05,0.0,0 STARLINK-4294,1 53176U 22083AW  23283.89928663  .00007023  00000-0  45883-3 0  9999,2 53176  53.2173 143.0542 0001455  99.9767 260.1390 15.08845439 68592,6917.864,95.437,540.735,538.722,0.0
53176.0,STARLINK-4294,PAYLOAD,2023-10-11 07:07:17,15.08848433,0.0001405,53.2171,141.2701,89.2715,270.8438,0.00039308,5.975e-05,0.0,0 STARLINK-4294,1 53176U 22083AW  23284.29672540  .00005975  00000-0  39308-3 0  9993,2 53176  53.2171 141.2701 0001405  89.2715 270.8438 15.08848433 68652,6917.855,95.437,540.692,538.748,0.0
53176.0,STARLINK-4294,PAYLOAD,2023-10-11 18:14:59,15.08837312,0.000141,53.217,139.1928,102.3465,257.7685,1.2249e-05,-9.3e-07,0.0,0 STARLINK-4294,1 53176U 22083AW  23284.76040842 -.00000093  00000-0  12249-4 0  9992,2 53176  53.2170 139.1928 0001410 102.3465 257.7685 15.08837312 69364,6917.889,95.438,540.729,538.778,0.0
53176.0,STARLINK-4294,PAYLOAD,2023-10-12 13:19:37,15.088388,0.0001318,53.2161,135.6228,90.6841,269.4302,0.00024383,3.595e-05,0.0,0 STARLINK-4294,1 53176U 22083AW  23285.55528969  .00003595  00000-0  24383-3 0  9991,2 53176  53.2161 135.6228 0001318  90.6841 269.4302 15.08838800 68843,6917.884,95.438,540.661,538.837,0.0
53176.0,STARLINK-4294,PAYLOAD,2023-10-12 19:41:09,15.08846052,0.0001289,53.2161,134.4334,91.0826,269.0314,0.00020935,3.046e-05,0.0,0 STARLINK-4294,1 53176U 22083AW  23285.82024705  .00003046  00000-0  20935-3 0  9990,2 53176  53.2161 134.4334 0001289  91.0826 269.0314 15.08846052 69526,6917.862,95.437,540.619,538.835,0.0
53176.0,STARLINK-4294,PAYLOAD,2023-10-12 21:16:32,15.08848814,0.0001299,53.2162,134.136,90.9376,269.1765,0.00019428,2.806e-05,0.0,0 STARLINK-4294,1 53176U 22083AW  23285.88648572  .00002806  00000-0  19428-3 0  9998,2 53176  53.2162 134.1360 0001299  90.9376 269.1765 15.08848814 68890,6917.853,95.437,540.617,538.82,0.0
53176.0,STARLINK-4294,PAYLOAD,2023-10-13 21:07:19,15.08848213,0.0001349,53.2161,129.6761,90.9887,269.126,0.00020379,2.958e-05,0.0,0 STARLINK-4294,1 53176U 22083AW  23286.88008577  .00002958  00000-0  20379-3 0  9999,2 53176  53.2161 129.6761 0001349  90.9887 269.1260 15.08848213 69687,6917.855,95.437,540.654,538.787,0.0
53176.0,STARLINK-4294,PAYLOAD,2023-10-14 13:01:10,15.08842092,0.0001369,53.2153,126.7031,82.7399,277.3749,8.3863e-05,1.047e-05,0.0,0 STARLINK-4294,1 53176U 22083AW  23287.54248720  .00001047  00000-0  83863-4 0  9995,2 53176  53.2153 126.7031 0001369  82.7399 277.3749 15.08842092 69148,6917.874,95.437,540.686,538.792,0.0
53176.0,STARLINK-4294,PAYLOAD,2023-10-14 19:22:43,15.0883319,0.0001443,53.216,125.5127,92.0324,268.0833,0.00028277,4.214e-05,0.0,0 STARLINK-4294,1 53176U 22083AW  23287.80745328  .00004214  00000-0  28277-3 0  9996,2 53176  53.2160 125.5127 0001443  92.0324 268.0833 15.08833190 69829,6917.901,95.438,540.764,538.768,0.0
53176.0,STARLINK-4294,PAYLOAD,2023-10-14 20:58:06,15.08842341,0.0001454,53.2161,125.2153,82.6789,277.4369,5.2749e-05,5.52e-06,0.0,0 STARLINK-4294,1 53176U 22083AW  23287.87368813  .00000552  00000-0  52749-4 0  9996,2 53176  53.2161 125.2153 0001454  82.6789 277.4369 15.08842341 69194,6917.873,95.437,540.744,538.732,0.0
53176.0,STARLINK-4294,PAYLOAD,2023-10-15 12:51:58,15.08840703,0.0001452,53.2159,122.242,87.6221,272.4938,3.3329e-06,-2.35e-06,0.0,0 STARLINK-4294,1 53176U 22083AW  23288.53608932 -.00000235  00000-0  33329-5 0  9992,2 53176  53.2159 122.2420 0001452  87.6221 272.4938 15.08840703 69297,6917.878,95.438,540.748,538.739,0.0
53176.0,STARLINK-4294,PAYLOAD,2023-10-15 19:13:30,15.08844394,0.0001284,53.2162,121.0521,90.8139,269.3,3.8266e-05,3.21e-06,0.0,0 STARLINK-4294,1 53176U 22083AW  23288.80104905  .00000321  00000-0  38266-4 0  9992,2 53176  53.2162 121.0521 0001284  90.8139 269.3000 15.08844394 69337,6917.867,95.437,540.62,538.844,0.0
